ONEWEB-0403             
1 50483U 21132Q   26120.16427743  .00000055  00000+0  10656-3 0  9994
2 50483  87.9201 345.0075 0001693  88.3208 271.8118 13.18582779215266
ONEWEB-0404             
1 50484U 21132R   26120.26454499  .00000315  00000+0  85205-3 0  9995
2 50484  87.8925  30.5958 0001678  88.3381 271.7940 13.11419494209418
ONEWEB-0405             
1 50485U 21132S   26120.17797964  .00000274  00000+0  66052-3 0  9996
2 50485  87.9206 344.9880 0001328  73.8500 286.2778 13.18781278215665
ONEWEB-0406             
1 50486U 21132T   26120.09343253  .00000037  00000+0  61324-4 0  9991
2 50486  87.9192 345.0263 0001670 103.0033 257.1285 13.18566165215288
ONEWEB-0407             
1 50487U 21132U   26120.16259826  .00000056  00000+0  10986-3 0  9990
2 50487  87.9201 345.0009 0001894  78.5043 281.6302 13.18587781215237
ONEWEB-0409             
1 50488U 21132V   26120.26284712  .00000342  00000+0  92851-3 0  9993
2 50488  87.8934  30.5813 0001642  85.8047 274.3269 13.11419865209307
ONEWEB-0412             
1 50489U 21132W   26120.15083099  .00000074  00000+0  15593-3 0  9997
2 50489  87.9192 345.0136 0002080  83.5065 276.6304 13.18625259215326
ONEWEB-0413             
1 50490U 21132X   26120.15588169  .00000078  00000+0  16570-3 0  9997
2 50490  87.9190 345.0145 0002021  79.9300 280.2060 13.18612810215264
ONEWEB-0414             
1 50491U 21132Y   26120.14074693  .00000051  00000+0  95493-4 0  9992
2 50491  87.9200 344.9944 0001930  87.1488 272.9865 13.18658689215296
ONEWEB-0417             
1 50492U 21132Z   26120.14916576  .00000094  00000+0  20700-3 0  9993
2 50492  87.9191 345.0164 0001651  90.2348 269.8974 13.18637608215274
ONEWEB-0418             
1 50493U 21132AA  26120.15912787  .00000025  00000+0  30278-4 0  9991
2 50493  87.9202 345.0096 0001644  95.3647 264.7673 13.18600906215330
ONEWEB-0419             
1 50494U 21132AB  26120.17700433  .00000048  00000+0  88558-4 0  9996
2 50494  87.9201 345.0054 0001537  85.6817 274.4490 13.18663086215250
ONEWEB-0420             
1 50495U 21132AC  26120.14242439  .00000076  00000+0  15948-3 0  9994
2 50495  87.9191 345.0199 0001834  77.2429 282.8908 13.18653129215248
ONEWEB-0421             
1 50496U 21132AD  26120.13570889  .00000021  00000+0  20501-4 0  9999
2 50496  87.9196 345.0165 0002157  90.5185 269.6195 13.18673547215284
ONEWEB-0424             
1 50497U 21132AE  26120.09679868  .00000080  00000+0  16984-3 0  9996
2 50497  87.9200 345.0207 0001441  81.1574 278.9722 13.18555671215300
ONEWEB-0426             
1 50498U 21132AF  26120.13227662  .00000083  00000+0  17757-3 0  9995
2 50498  87.9200 345.0054 0002070 103.8976 256.2387 13.18691425215256
