[{"OBJECT_NAME":"ONEWEB-0403","OBJECT_ID":"2021-132Q","EPOCH":"2026-04-30T03:56:33.569952","MEAN_MOTION":13.18582779,"ECCENTRICITY":0.0001693,"INCLINATION":87.9201,"RA_OF_ASC_NODE":345.0075,"ARG_OF_PERICENTER":88.3208,"MEAN_ANOMALY":271.8118,"EPHEMERIS_TYPE":0,"CLASSIFICATION_TYPE":"U","NORAD_CAT_ID":50483,"ELEMENT_SET_NO":999,"REV_AT_EPOCH":21526,"BSTAR":0.00010656000000000001,"MEAN_MOTION_DOT":5.5e-07,"MEAN_MOTION_DDOT":0.0},{"OBJECT_NAME":"ONEWEB-0404","OBJECT_ID":"2021-132R","EPOCH":"2026-04-30T06:20:56.687136","MEAN_MOTION":13.11419494,"ECCENTRICITY":0.0001678,"INCLINATION":87.8925,"RA_OF_ASC_NODE":30.5958,"ARG_OF_PERICENTER":88.3381,"MEAN_ANOMALY":271.794,"EPHEMERIS_TYPE":0,"CLASSIFICATION_TYPE":"U","NORAD_CAT_ID":50484,"ELEMENT_SET_NO":999,"REV_AT_EPOCH":20941,"BSTAR":0.00085205,"MEAN_MOTION_DOT":3.15e-06,"MEAN_MOTION_DDOT":0.0},{"OBJECT_NAME":"ONEWEB-0405","OBJECT_ID":"2021-132S","EPOCH":"2026-04-30T04:16:17.440896","MEAN_MOTION":13.18781278,"ECCENTRICITY":0.0001328,"INCLINATION":87.9206,"RA_OF_ASC_NODE":344.988,"ARG_OF_PERICENTER":73.85,"MEAN_ANOMALY":286.2778,"EPHEMERIS_TYPE":0,"CLASSIFICATION_TYPE":"U","NORAD_CAT_ID":50485,"ELEMENT_SET_NO":999,"REV_AT_EPOCH":21566,"BSTAR":0.00066052,"MEAN_MOTION_DOT":2.74e-06,"MEAN_MOTION_DDOT":0.0},{"OBJECT_NAME":"ONEWEB-0406","OBJECT_ID":"2021-132T","EPOCH":"2026-04-30T02:14:32.570592","MEAN_MOTION":13.18566165,"ECCENTRICITY":0.000167,"INCLINATION":87.9192,"RA_OF_ASC_NODE":345.0263,"ARG_OF_PERICENTER":103.0033,"MEAN_ANOMALY":257.1285,"EPHEMERIS_TYPE":0,"CLASSIFICATION_TYPE":"U","NORAD_CAT_ID":50486,"ELEMENT_SET_NO":999,"REV_AT_EPOCH":21528,"BSTAR":6.1324e-05,"MEAN_MOTION_DOT":3.7e-07,"MEAN_MOTION_DDOT":0.0},{"OBJECT_NAME":"ONEWEB-0407","OBJECT_ID":"2021-132U","EPOCH":"2026-04-30T03:54:08.489664","MEAN_MOTION":13.18587781,"ECCENTRICITY":0.0001894,"INCLINATION":87.9201,"RA_OF_ASC_NODE":345.0009,"ARG_OF_PERICENTER":78.5043,"MEAN_ANOMALY":281.6302,"EPHEMERIS_TYPE":0,"CLASSIFICATION_TYPE":"U","NORAD_CAT_ID":50487,"ELEMENT_SET_NO":999,"REV_AT_EPOCH":21523,"BSTAR":0.00010986,"MEAN_MOTION_DOT":5.6e-07,"MEAN_MOTION_DDOT":0.0},{"OBJECT_NAME":"ONEWEB-0409","OBJECT_ID":"2021-132V","EPOCH":"2026-04-30T06:18:29.991168","MEAN_MOTION":13.11419865,"ECCENTRICITY":0.0001642,"INCLINATION":87.8934,"RA_OF_ASC_NODE":30.5813,"ARG_OF_PERICENTER":85.8047,"MEAN_ANOMALY":274.3269,"EPHEMERIS_TYPE":0,"CLASSIFICATION_TYPE":"U","NORAD_CAT_ID":50488,"ELEMENT_SET_NO":999,"REV_AT_EPOCH":20930,"BSTAR":0.00092851,"MEAN_MOTION_DOT":3.42e-06,"MEAN_MOTION_DDOT":0.0},{"OBJECT_NAME":"ONEWEB-0412","OBJECT_ID":"2021-132W","EPOCH":"2026-04-30T03:37:11.797536","MEAN_MOTION":13.18625259,"ECCENTRICITY":0.000208,"INCLINATION":87.9192,"RA_OF_ASC_NODE":345.0136,"ARG_OF_PERICENTER":83.5065,"MEAN_ANOMALY":276.6304,"EPHEMERIS_TYPE":0,"CLASSIFICATION_TYPE":"U","NORAD_CAT_ID":50489,"ELEMENT_SET_NO":999,"REV_AT_EPOCH":21532,"BSTAR":0.00015593,"MEAN_MOTION_DOT":7.4e-07,"MEAN_MOTION_DDOT":0.0},{"OBJECT_NAME":"ONEWEB-0413","OBJECT_ID":"2021-132X","EPOCH":"2026-04-30T03:44:28.178016","MEAN_MOTION":13.1861281,"ECCENTRICITY":0.0002021,"INCLINATION":87.919,"RA_OF_ASC_NODE":345.0145,"ARG_OF_PERICENTER":79.93,"MEAN_ANOMALY":280.206,"EPHEMERIS_TYPE":0,"CLASSIFICATION_TYPE":"U","NORAD_CAT_ID":50490,"ELEMENT_SET_NO":999,"REV_AT_EPOCH":21526,"BSTAR":0.0001657,"MEAN_MOTION_DOT":7.8e-07,"MEAN_MOTION_DDOT":0.0},{"OBJECT_NAME":"ONEWEB-0414","OBJECT_ID":"2021-132Y","EPOCH":"2026-04-30T03:22:40.534752","MEAN_MOTION":13.18658689,"ECCENTRICITY":0.000193,"INCLINATION":87.92,"RA_OF_ASC_NODE":344.9944,"ARG_OF_PERICENTER":87.1488,"MEAN_ANOMALY":272.9865,"EPHEMERIS_TYPE":0,"CLASSIFICATION_TYPE":"U","NORAD_CAT_ID":50491,"ELEMENT_SET_NO":999,"REV_AT_EPOCH":21529,"BSTAR":9.5493e-05,"MEAN_MOTION_DOT":5.1e-07,"MEAN_MOTION_DDOT":0.0},{"OBJECT_NAME":"ONEWEB-0417","OBJECT_ID":"2021-132Z","EPOCH":"2026-04-30T03:34:47.921664","MEAN_MOTION":13.18637608,"ECCENTRICITY":0.0001651,"INCLINATION":87.9191,"RA_OF_ASC_NODE":345.0164,"ARG_OF_PERICENTER":90.2348,"MEAN_ANOMALY":269.8974,"EPHEMERIS_TYPE":0,"CLASSIFICATION_TYPE":"U","NORAD_CAT_ID":50492,"ELEMENT_SET_NO":999,"REV_AT_EPOCH":21527,"BSTAR":0.000207,"MEAN_MOTION_DOT":9.4e-07,"MEAN_MOTION_DDOT":0.0},{"OBJECT_NAME":"ONEWEB-0418","OBJECT_ID":"2021-132AA","EPOCH":"2026-04-30T03:49:08.647968","MEAN_MOTION":13.18600906,"ECCENTRICITY":0.0001644,"INCLINATION":87.9202,"RA_OF_ASC_NODE":345.0096,"ARG_OF_PERICENTER":95.3647,"MEAN_ANOMALY":264.7673,"EPHEMERIS_TYPE":0,"CLASSIFICATION_TYPE":"U","NORAD_CAT_ID":50493,"ELEMENT_SET_NO":999,"REV_AT_EPOCH":21533,"BSTAR":3.0278e-05,"MEAN_MOTION_DOT":2.5e-07,"MEAN_MOTION_DDOT":0.0},{"OBJECT_NAME":"ONEWEB-0419","OBJECT_ID":"2021-132AB","EPOCH":"2026-04-30T04:14:53.174112","MEAN_MOTION":13.18663086,"ECCENTRICITY":0.0001537,"INCLINATION":87.9201,"RA_OF_ASC_NODE":345.0054,"ARG_OF_PERICENTER":85.6817,"MEAN_ANOMALY":274.449,"EPHEMERIS_TYPE":0,"CLASSIFICATION_TYPE":"U","NORAD_CAT_ID":50494,"ELEMENT_SET_NO":999,"REV_AT_EPOCH":21525,"BSTAR":8.8558e-05,"MEAN_MOTION_DOT":4.8e-07,"MEAN_MOTION_DDOT":0.0},{"OBJECT_NAME":"ONEWEB-0420","OBJECT_ID":"2021-132AC","EPOCH":"2026-04-30T03:25:05.467296","MEAN_MOTION":13.18653129,"ECCENTRICITY":0.0001834,"INCLINATION":87.9191,"RA_OF_ASC_NODE":345.0199,"ARG_OF_PERICENTER":77.2429,"MEAN_ANOMALY":282.8908,"EPHEMERIS_TYPE":0,"CLASSIFICATION_TYPE":"U","NORAD_CAT_ID":50495,"ELEMENT_SET_NO":999,"REV_AT_EPOCH":21524,"BSTAR":0.00015948,"MEAN_MOTION_DOT":7.6e-07,"MEAN_MOTION_DDOT":0.0},{"OBJECT_NAME":"ONEWEB-0421","OBJECT_ID":"2021-132AD","EPOCH":"2026-04-30T03:15:25.248096","MEAN_MOTION":13.18673547,"ECCENTRICITY":0.0002157,"INCLINATION":87.9196,"RA_OF_ASC_NODE":345.0165,"ARG_OF_PERICENTER":90.5185,"MEAN_ANOMALY":269.6195,"EPHEMERIS_TYPE":0,"CLASSIFICATION_TYPE":"U","NORAD_CAT_ID":50496,"ELEMENT_SET_NO":999,"REV_AT_EPOCH":21528,"BSTAR":2.0501000000000002e-05,"MEAN_MOTION_DOT":2.1e-07,"MEAN_MOTION_DDOT":0.0},{"OBJECT_NAME":"ONEWEB-0424","OBJECT_ID":"2021-132AE","EPOCH":"2026-04-30T02:19:23.405952","MEAN_MOTION":13.18555671,"ECCENTRICITY":0.0001441,"INCLINATION":87.92,"RA_OF_ASC_NODE":345.0207,"ARG_OF_PERICENTER":81.1574,"MEAN_ANOMALY":278.9722,"EPHEMERIS_TYPE":0,"CLASSIFICATION_TYPE":"U","NORAD_CAT_ID":50497,"ELEMENT_SET_NO":999,"REV_AT_EPOCH":21530,"BSTAR":0.00016984,"MEAN_MOTION_DOT":8e-07,"MEAN_MOTION_DDOT":0.0},{"OBJECT_NAME":"ONEWEB-0426","OBJECT_ID":"2021-132AF","EPOCH":"2026-04-30T03:10:28.699968","MEAN_MOTION":13.18691425,"ECCENTRICITY":0.000207,"INCLINATION":87.92,"RA_OF_ASC_NODE":345.0054,"ARG_OF_PERICENTER":103.8976,"MEAN_ANOMALY":256.2387,"EPHEMERIS_TYPE":0,"CLASSIFICATION_TYPE":"U","NORAD_CAT_ID":50498,"ELEMENT_SET_NO":999,"REV_AT_EPOCH":21525,"BSTAR":0.00017757000000000002,"MEAN_MOTION_DOT":8.3e-07,"MEAN_MOTION_DDOT":0.0}]